GLOBALSTAR M045         
1 25676U 99019A   26012.28928370 -.00000105  00000+0 -10535-3 0  9998
2 25676  51.9977  69.2783 0000398 159.8134 285.7689 12.27070874219063
GLOBALSTAR M019         
1 25677U 99019B   26012.02714975 -.00000153  00000+0 -65639-3 0  9993
2 25677  51.9851 215.0907 0002184  52.0543 108.4083 12.13881582210507
GLOBALSTAR M044         
1 25678U 99019C   26011.97404951 -.00000059  00000+0  34405-3 0  9998
2 25678  51.9933 192.7153 0007251  83.2372  84.8337 11.90263936196186
GLOBALSTAR M042         
1 25679U 99019D   26011.89018605 -.00000047  00000+0  42353-3 0  9995
2 25679  51.9992 181.7738 0003282  31.9750 115.5232 12.22095998210774
GLOBALSTAR M025         
1 25770U 99031A   26012.30000877 -.00000062  00000+0  17541-3 0  9998
2 25770  51.9838  34.8440 0002356 132.7584 312.3698 11.22560380505196
GLOBALSTAR M049         
1 25771U 99031B   26012.14338452 -.00000087  00000+0 -74718-3 0  9991
2 25771  51.9883  80.4705 0002561  23.0037 337.0874 11.12124258140678
GLOBALSTAR M047         
1 25772U 99031C   26012.26139566 -.00000072  00000+0 -70673-4 0  9991
2 25772  51.9845  57.1977 0016219 260.5437  99.3535 11.31931887494787
GLOBALSTAR M052         
1 25773U 99031D   26011.94681112 -.00000023  00000+0  14339-2 0  9995
2 25773  51.9827 186.6548 0003398 136.9353  34.1371 11.15063521501795
